{
  "type": "Feature",
  "properties": {
    "name": "Golfolio — Sherman beta area",
    "status": "temporary-beta",
    "description": "Superseded polygon file. The live beta area is now a 30-mile radius centered on Sherman, Texas (33.6357, -96.6089). See sherman-beta-area.json.",
    "center": {
      "label": "Sherman, Texas",
      "latitude": 33.6357,
      "longitude": -96.6089
    },
    "radius_miles": 30
  },
  "geometry": {
    "type": "Point",
    "coordinates": [-96.6089, 33.6357]
  }
}
